{
    "links": {
        "self": "http://www.neowsapp.com/rest/v1/neo/3647270?api_key=iIulBulltgU6a56xZRHN4H3l9WmuAYTsLGpBGhQ2"
    },
    "id": "3647270",
    "neo_reference_id": "3647270",
    "name": "(2013 QB53)",
    "designation": "2013 QB53",
    "nasa_jpl_url": "http://ssd.jpl.nasa.gov/sbdb.cgi?sstr=3647270",
    "absolute_magnitude_h": 24.6,
    "estimated_diameter": {
        "kilometers": {
            "estimated_diameter_min": 0.0319561887,
            "estimated_diameter_max": 0.0714562102
        },
        "meters": {
            "estimated_diameter_min": 31.9561886721,
            "estimated_diameter_max": 71.4562101727
        },
        "miles": {
            "estimated_diameter_min": 0.0198566489,
            "estimated_diameter_max": 0.0444008168
        },
        "feet": {
            "estimated_diameter_min": 104.8431420431,
            "estimated_diameter_max": 234.436392583
        }
    },
    "is_potentially_hazardous_asteroid": false,
    "close_approach_data": [
        {
            "close_approach_date": "2013-08-31",
            "close_approach_date_full": "2013-Aug-31 14:05",
            "epoch_date_close_approach": 1377957900000,
            "relative_velocity": {
                "kilometers_per_second": "13.1855070503",
                "kilometers_per_hour": "47467.8253811462",
                "miles_per_hour": "29494.6607208572"
            },
            "miss_distance": {
                "astronomical": "0.0922881223",
                "lunar": "35.9000795747",
                "kilometers": "13806106.522379501",
                "miles": "8578716.7926230738"
            },
            "orbiting_body": "Earth"
        }
    ],
    "orbital_data": {
        "orbit_id": "4",
        "orbit_determination_date": "2017-04-06 08:44:58",
        "first_observation_date": "2013-08-29",
        "last_observation_date": "2013-08-30",
        "data_arc_in_days": 1,
        "observations_used": 8,
        "orbit_uncertainty": "9",
        "minimum_orbit_intersection": ".0873895",
        "jupiter_tisserand_invariant": "4.741",
        "epoch_osculation": "2456534.5",
        "eccentricity": ".2288044067201116",
        "semi_major_axis": "1.356099151896238",
        "inclination": "24.61138083862735",
        "ascending_node_longitude": "154.6825915908211",
        "orbital_period": "576.8137352934468",
        "perihelion_distance": "1.045817689992973",
        "perihelion_argument": "223.1751676411619",
        "aphelion_distance": "1.666380613799503",
        "perihelion_time": "2456577.536770475580",
        "mean_anomaly": "333.1399645618237",
        "mean_motion": ".6241182863248818",
        "equinox": "J2000",
        "orbit_class": {
            "orbit_class_type": "AMO",
            "orbit_class_description": "Near-Earth asteroid orbits similar to that of 1221 Amor",
            "orbit_class_range": "1.017 AU < q (perihelion) < 1.3 AU"
        }
    },
    "is_sentry_object": false
}